{"type":"FeatureCollection","features":[{"type":"Feature","properties":{"name":"Hyacinth"},"geometry":{"coordinates":[[[121.12105330634,14.745636949698195],[121.12171057230137,14.74523783965165],[121.1219551363804,14.745599995094409],[121.12129022779158,14.745969540843646],[121.12105330634,14.745636949698195]]],"type":"Polygon"}},{"type":"Feature","properties":{"name":"Belladona"},"geometry":{"coordinates":[[[121.12196072072811,14.74559639501068],[121.12170611697252,14.745223739651038],[121.1223185422229,14.744877701960633],[121.12257314597628,14.745217085085173],[121.12196072072811,14.74559639501068]]],"type":"Polygon"}},{"type":"Feature","properties":{"name":"Willow"},"geometry":{"coordinates":[[[121.12243810542373,14.74611871353477],[121.12216942909214,14.745486153709194],[121.12264469726898,14.745181046867074],[121.12302578009081,14.745736114890747],[121.12243810542373,14.74611871353477]]],"type":"Polygon"}},{"type":"Feature","properties":{"name":"Marigold"},"geometry":{"coordinates":[[[121.12302596887781,14.745736966778892],[121.12264885997604,14.745178550364301],[121.12301412995095,14.74495556123496],[121.12339268354248,14.745505257046133],[121.12302596887781,14.745736966778892]]],"type":"Polygon"}},{"type":"Feature","properties":{"name":"Primrose"},"geometry":{"coordinates":[[[121.12338712793587,14.745505257046133],[121.12301409901715,14.744952874051705],[121.12322475840011,14.744830933880607],[121.12357994686488,14.745362513124263],[121.12338712793587,14.745505257046133]]],"type":"Polygon"}},{"type":"Feature","properties":{"name":"Ruella"},"geometry":{"coordinates":[[[121.12358268409577,14.745362513124263],[121.1232300232644,14.744833550448504],[121.1237528435056,14.744539742315212],[121.12408294603637,14.745053354013322],[121.12358268409577,14.745362513124263]]],"type":"Polygon"}},{"type":"Feature","properties":{"name":"Azalea"},"geometry":{"coordinates":[[[121.12257237948438,14.745215346764496],[121.12232468634107,14.744872980350479],[121.12294662985323,14.744510427443714],[121.123135289385,14.744872980350479],[121.12257237948438,14.745215346764496]]],"type":"Polygon"}},{"type":"Feature","properties":{"name":"Jasmine"},"geometry":{"coordinates":[[[121.12313522374387,14.744870341064242],[121.12294661912938,14.744507993343674],[121.12356841000445,14.744166536923288],[121.12375558276699,14.744542194061822],[121.12313522374387,14.744870341064242]]],"type":"Polygon"}},{"type":"Feature","properties":{"name":"Camella"},"geometry":{"coordinates":[[[121.12408442226047,14.745048094220735],[121.12376152350686,14.744547992382977],[121.12427152398521,14.744230715367408],[121.12461269421112,14.744705144871858],[121.12408442226047,14.745048094220735]]],"type":"Polygon"}},{"type":"Feature","properties":{"name":"Daphne"},"geometry":{"coordinates":[[[121.12375355078689,14.744545233311698],[121.12356710905715,14.744164240723222],[121.12420245545525,14.743803741275997],[121.12441327458396,14.744136410591864],[121.12375355078689,14.744545233311698]]],"type":"Polygon"}},{"type":"Feature","properties":{"name":"Adelfa"},"geometry":{"coordinates":[[[121.12461253805094,14.74470775748486],[121.12427550796565,14.744229143176213],[121.1246821807967,14.744002665077033],[121.12498304599774,14.744493843676636],[121.12461253805094,14.74470775748486]]],"type":"Polygon"}},{"type":"Feature","properties":{"name":"Iris"},"geometry":{"coordinates":[[[121.12441342389076,14.744131131239314],[121.12421307395948,14.743799648636568],[121.12483579843132,14.74345251294993],[121.1250157080716,14.743825508729856],[121.12441342389076,14.744131131239314]]],"type":"Polygon"}},{"type":"Feature","properties":{"name":"Lilac"},"geometry":{"coordinates":[[[121.12501189582218,14.743819878966207],[121.12483807292216,14.743443528424251],[121.12543216369795,14.743086914573595],[121.12562267614146,14.743494691732124],[121.12501189582218,14.743819878966207]]],"type":"Polygon"}},{"type":"Feature","properties":{"name":"Rose"},"geometry":{"coordinates":[[[121.12561989901792,14.743492119712329],[121.12543400387432,14.743077542862892],[121.1256026106501,14.742989518064476],[121.12590921618897,14.743313179673251],[121.12561989901792,14.743492119712329]]],"type":"Polygon"}},{"type":"Feature","properties":{"name":"Cattleya"},"geometry":{"coordinates":[[[121.12493874227044,14.744413789765048],[121.12468696611194,14.744000934158294],[121.12520285619485,14.743709274426607],[121.12546663325509,14.744130042307518],[121.12493874227044,14.744413789765048]]],"type":"Polygon"}},{"type":"Feature","properties":{"name":"Anthurium B"},"geometry":{"coordinates":[[[121.12546660553824,14.744127370707432],[121.12521033922582,14.743709274426607],[121.12562526165516,14.743486342418066],[121.1258736089107,14.743882986595324],[121.12546660553824,14.744127370707432]]],"type":"Polygon"}},{"type":"Feature","properties":{"name":"Anthurium A"},"geometry":{"coordinates":[[[121.12587600988496,14.743880456586083],[121.12562533032741,14.743488654413781],[121.12591314154088,14.743314213539776],[121.12621601510989,14.743636873691017],[121.12587600988496,14.743880456586083]]],"type":"Polygon"}},{"type":"Feature","properties":{"name":"Henna"},"geometry":{"coordinates":[[[121.12487946361773,14.745142923481893],[121.124602486671,14.74471126788059],[121.12498970741223,14.744492622917306],[121.12525394706819,14.74493366453045],[121.12487946361773,14.745142923481893]]],"type":"Polygon"}},{"type":"Feature","properties":{"name":"Dendrobium"},"geometry":{"coordinates":[[[121.12516430356396,14.744769813953766],[121.12494041074041,14.744417076169697],[121.12545370087588,14.744134522048896],[121.12566727685294,14.744466337254124],[121.12516430356396,14.744769813953766]]],"type":"Polygon"}},{"type":"Feature","properties":{"name":"Bromeliad B"},"geometry":{"coordinates":[[[121.12566739403411,14.744469250793216],[121.12545648956785,14.744142673642273],[121.125874366407,14.74388102768144],[121.12608440965653,14.74423884591991],[121.12566739403411,14.744469250793216]]],"type":"Polygon"}},{"type":"Feature","properties":{"name":"Bromeliad A"},"geometry":{"coordinates":[[[121.12608127141328,14.744233296680335],[121.12588478861556,14.743883596765357],[121.12621526551703,14.743641029250554],[121.12653640157993,14.743943092478773],[121.12608127141328,14.744233296680335]]],"type":"Polygon"}},{"type":"Feature","properties":{"name":"Santan1"},"geometry":{"coordinates":[[[121.12557636954989,14.745519945435277],[121.1252061530542,14.745712761268067],[121.12488671905004,14.745152496872393],[121.12526147023453,14.744935212947865],[121.12557636954989,14.745519945435277]]],"type":"Polygon"}},{"type":"Feature","properties":{"name":"Santan2"},"geometry":{"coordinates":[[[121.12549559879562,14.746254392435489],[121.12519751483887,14.74570621422302],[121.12558478629893,14.745516793689674],[121.12589150692543,14.746044223279924],[121.12549559879562,14.746254392435489]]],"type":"Polygon"}},{"type":"Feature","properties":{"name":"Roselle A"},"geometry":{"coordinates":[[[121.12535087095557,14.745068411573612],[121.12515905842383,14.744775881786822],[121.12567328531861,14.74447035973877],[121.12586573053784,14.74477318202888],[121.12535087095557,14.745068411573612]]],"type":"Polygon"}},{"type":"Feature","properties":{"name":"Roselle B"},"geometry":{"coordinates":[[[121.12553324054034,14.74539540810244],[121.1253426919173,14.7450626667287],[121.1258737889392,14.744775881786822],[121.12604012305212,14.745077041836169],[121.12553324054034,14.74539540810244]]],"type":"Polygon"}},{"type":"Feature","properties":{"name":"Azucena A"},"geometry":{"coordinates":[[[121.12568822406342,14.745683365720453],[121.12552466763009,14.745389262699803],[121.12603965601483,14.745071286593713],[121.12623077962809,14.745389262699803],[121.12568822406342,14.745683365720453]]],"type":"Polygon"}},{"type":"Feature","properties":{"name":"Azucena B"},"geometry":{"coordinates":[[[121.12589407748675,14.746037243170278],[121.12568849546517,14.745689883386234],[121.12623698894413,14.74539540810244],[121.12641220587784,14.74570621422302],[121.12589407748675,14.746037243170278]]],"type":"Polygon"}},{"type":"Feature","properties":{"name":"Gumamela A"},"geometry":{"coordinates":[[[121.1258686430059,14.744779889399595],[121.12567132926534,14.744464100936185],[121.1260944832809,14.744238142841041],[121.12627822994585,14.744536580496828],[121.1258686430059,14.744779889399595]]],"type":"Polygon"}},{"type":"Feature","properties":{"name":"Gumamela B"},"geometry":{"coordinates":[[[121.12604385532217,14.745073586598267],[121.12586628189894,14.744782471750682],[121.1262829672541,14.744536580496828],[121.12644070489512,14.744847539732802],[121.12604385532217,14.745073586598267]]],"type":"Polygon"}},{"type":"Feature","properties":{"name":"Camia A"},"geometry":{"coordinates":[[[121.12623631152206,14.745382193580852],[121.12604624126129,14.745070826054857],[121.12657259182038,14.744774729358284],[121.12675411666078,14.745087415135572],[121.12623631152206,14.745382193580852]]],"type":"Polygon"}},{"type":"Feature","properties":{"name":"Camia B"},"geometry":{"coordinates":[[[121.12641804518728,14.745709874650075],[121.12623189297005,14.745394036375771],[121.12676205107363,14.745090186017904],[121.12691278944294,14.745405909769019],[121.12641804518728,14.745709874650075]]],"type":"Polygon"}},{"type":"Feature","properties":{"name":"Garden of Peace A"},"geometry":{"coordinates":[[[121.12768906994592,14.744371338220859],[121.12738798076015,14.744014545050192],[121.1279201705774,14.74378890634533],[121.12811006241623,14.74403971811573],[121.12768906994592,14.744371338220859]]],"type":"Polygon"},"id":31},{"type":"Feature","properties":{"name":"Garden of Peace B"},"geometry":{"coordinates":[[[121.12792074912795,14.744702547912965],[121.12768599900772,14.744362296493904],[121.12811033556216,14.744042523900518],[121.12838101070741,14.744383421350491],[121.12792074912795,14.744702547912965]]],"type":"Polygon"}},{"type":"Feature","properties":{"name":"Garden of Love"},"geometry":{"coordinates":[[[121.12736727058837,14.743983969825294],[121.12707133287915,14.743625119753247],[121.12748653629359,14.743329634565796],[121.12765333878741,14.743343921526218],[121.1278467130573,14.743457575827108],[121.12802506946366,14.743640451978209],[121.1279291557405,14.743746716474746],[121.12736727058837,14.743983969825294]]],"type":"Polygon"}},{"type":"Feature","properties":{"name":"Garden of Paradise A"},"geometry":{"coordinates":[[[121.12794179904205,14.743773908908679],[121.12839795228979,14.743581624488897],[121.12863762385615,14.743917604631605],[121.12826615345676,14.744178637081774],[121.12794179904205,14.743773908908679]]],"type":"Polygon"}},{"type":"Feature","properties":{"name":"Garden of Paradise B"},"geometry":{"coordinates":[[[121.12852919847597,14.744510262561377],[121.12828752118656,14.744193127699035],[121.12866019249299,14.743940204491736],[121.12890239411814,14.744283679758581],[121.12852919847597,14.744510262561377]]],"type":"Polygon"}},{"type":"Feature","properties":{"name":"Garden of Beauty A"},"geometry":{"coordinates":[[[121.12804794126288,14.74361783947478],[121.12787558537326,14.743439435008355],[121.12767056780939,14.743311496094307],[121.12818257215508,14.74300305246642],[121.12837447160388,14.743479353184597],[121.12804794126288,14.74361783947478]]],"type":"Polygon"}},{"type":"Feature","properties":{"name":"Garden of Beauty B"},"geometry":{"coordinates":[[[121.12747706779032,14.743288122833903],[121.12741858125935,14.743220960329126],[121.12810748489602,14.742790394131674],[121.12818417435784,14.74299913967711],[121.12766846588522,14.743311496094307],[121.12747706779032,14.743288122833903]]],"type":"Polygon"}},{"type":"Feature","properties":{"name":"Chaplet Banaba"},"geometry":{"coordinates":[[[121.12611309414166,14.744248155279365],[121.12641997959884,14.744054226258015],[121.12664495104809,14.74420674116],[121.12728206330871,14.743935239567705],[121.12744986288891,14.744120757187034],[121.12644601713652,14.744822335724365],[121.12611309414166,14.744248155279365]]],"type":"Polygon"}},{"type":"Feature","properties":{"name":"Chaplet Acacia"},"geometry":{"coordinates":[[[121.12692195396346,14.745359916035511],[121.12658498265432,14.744753470304786],[121.12708374649469,14.744401507644923],[121.1275318616294,14.744960830039318],[121.12692195396346,14.745359916035511]]],"type":"Polygon"}}]}